********  Ephemeris for PRN- 7  ********
PRN:                       7
Week:                      993
Time of Ephemeris (s):     342000
Square Root of A(m^1/2):   5153.57602501
Eccentricity:              0.010193660622500
Mean anomaly (deg):        179.000032916433950
Inclination (deg):         54.824620736781689
Long of asc. node (deg):   -166.433289824299460
Argument of perigee (deg): -124.275559075259640
d-inclination/dt (deg/s):  -2.840351953635913e-008
d-Omega/dt (deg/s):        -4.484195414989485e-007
DeltaN (mean motion corr): 4.46554315065000e-009
Cuc:                       3.35276126862000e-008
Cus:                       1.11032277346000e-005
Crc:                       1.58875000000000e+002
Crs:                       1.40625000000000e+000
Cic:                       1.00582838059000e-007
Cis:                       -2.99885869026000e-007
Clock ref. time (s):       342000
af0:                       8.06360505521000e-004
af1:                       1.36424205266000e-012
af2:                       0.00000000000000e+000
Group delay (s):           -9.31322574616000e-010

********  Ephemeris for PRN-27  ********
PRN:                       27
Week:                      993
Time of Ephemeris (s):     345520
Square Root of A(m^1/2):   5153.71212006
Eccentricity:              0.013141222181700
Mean anomaly (deg):        27.379808742559973
Inclination (deg):         53.878098847337434
Long of asc. node (deg):   72.804536875093206
Argument of perigee (deg): -171.210594512496500
d-inclination/dt (deg/s):  3.178001861672815e-008
d-Omega/dt (deg/s):        -4.800767783308328e-007
DeltaN (mean motion corr): 5.00235122515000e-009
Cuc:                       2.11596488953000e-006
Cus:                       9.56282019615000e-006
Crc:                       1.82875000000000e+002
Crs:                       3.90312500000000e+001
Cic:                       2.21654772758000e-007
Cis:                       2.32830643654000e-007
Clock ref. time (s):       345520
af0:                       8.80844891071000e-006
af1:                       1.13686837722000e-012
af2:                       0.00000000000000e+000
Group delay (s):           4.65661287308000e-010

********  Ephemeris for PRN- 2  ********
PRN:                       2
Week:                      993
Time of Ephemeris (s):     345584
Square Root of A(m^1/2):   5153.65783691
Eccentricity:              0.018382331705700
Mean anomaly (deg):        -77.560964590101207
Inclination (deg):         53.659811457628784
Long of asc. node (deg):   131.257550641650680
Argument of perigee (deg): -127.677362859397020
d-inclination/dt (deg/s):  -3.888089850081793e-010
d-Omega/dt (deg/s):        -4.899402483714163e-007
DeltaN (mean motion corr): 5.54308803472000e-009
Cuc:                       2.32830643654000e-007
Cus:                       4.20212745667000e-006
Crc:                       2.79312500000000e+002
Crs:                       -3.43750000000000e-001
Cic:                       4.30271029472000e-007
Cis:                       1.21071934700000e-007
Clock ref. time (s):       345584
af0:                       -1.51833519340000e-005
af1:                       -4.54747350886000e-012
af2:                       0.00000000000000e+000
Group delay (s):           -2.32830643654000e-009

********  Ephemeris for PRN-10  ********
PRN:                       10
Week:                      993
Time of Ephemeris (s):     345584
Square Root of A(m^1/2):   5153.65023422
Eccentricity:              0.003221477614720
Mean anomaly (deg):        -69.430466629452724
Inclination (deg):         55.541843846444024
Long of asc. node (deg):   -45.635791243965684
Argument of perigee (deg): -11.691325726010518
d-inclination/dt (deg/s):  -5.913989298297474e-009
d-Omega/dt (deg/s):        -4.843536771660930e-007
DeltaN (mean motion corr): 4.67269463649000e-009
Cuc:                       -1.68383121491000e-006
Cus:                       2.21654772759000e-006
Crc:                       3.42843750000000e+002
Crs:                       -3.30000000000000e+001
Cic:                       -7.82310962677000e-008
Cis:                       -5.02914190292000e-008
Clock ref. time (s):       345584
af0:                       3.14298085868000e-005
af1:                       4.54747350887000e-013
af2:                       0.00000000000000e+000
Group delay (s):           -1.86264514923000e-009

********  Ephemeris for PRN-13  ********
PRN:                       13
Week:                      993
Time of Ephemeris (s):     345584
Square Root of A(m^1/2):   5153.56189728
Eccentricity:              0.001788977533580
Mean anomaly (deg):        -31.611282974462661
Inclination (deg):         55.084075760114715
Long of asc. node (deg):   14.409684045266728
Argument of perigee (deg): -68.428638596144964
d-inclination/dt (deg/s):  -9.965788194648623e-009
d-Omega/dt (deg/s):        -4.547428034132202e-007
DeltaN (mean motion corr): 4.19017453759000e-009
Cuc:                       -5.02727925777000e-006
Cus:                       1.09784305096000e-005
Crc:                       1.68187500000000e+002
Crs:                       -9.90625000000000e+001
Cic:                       -6.70552253723000e-008
Cis:                       5.21540641785000e-008
Clock ref. time (s):       345584
af0:                       -4.54832799733000e-004
af1:                       -1.90993887372000e-011
af2:                       0.00000000000000e+000
Group delay (s):           5.58793544769000e-009

********  Ephemeris for PRN-19  ********
PRN:                       19
Week:                      993
Time of Ephemeris (s):     345584
Square Root of A(m^1/2):   5153.62162971
Eccentricity:              0.004532919265330
Mean anomaly (deg):        56.026512226082659
Inclination (deg):         53.103039851417748
Long of asc. node (deg):   70.802017478247976
Argument of perigee (deg): -162.285094745504350
d-inclination/dt (deg/s):  2.889464667533335e-008
d-Omega/dt (deg/s):        -4.797698238691530e-007
DeltaN (mean motion corr): 5.24879006175000e-009
Cuc:                       2.18674540520000e-006
Cus:                       9.88319516182000e-006
Crc:                       1.70687500000000e+002
Crs:                       4.10312500000000e+001
Cic:                       -8.19563865662000e-008
Cis:                       1.43423676491000e-007
Clock ref. time (s):       345584
af0:                       -9.89064574242000e-005
af1:                       -4.09272615798000e-012
af2:                       0.00000000000000e+000
Group delay (s):           -3.25962901115000e-009

********  Ephemeris for PRN-31  ********
PRN:                       31
Week:                      993
Time of Ephemeris (s):     345584
Square Root of A(m^1/2):   5153.68843079
Eccentricity:              0.008620066568260
Mean anomaly (deg):        144.785810094140910
Inclination (deg):         54.792876876913020
Long of asc. node (deg):   -166.371722901108740
Argument of perigee (deg): 43.107751831426043
d-inclination/dt (deg/s):  -2.210072125309530e-008
d-Omega/dt (deg/s):        -4.492994776228891e-007
DeltaN (mean motion corr): 4.50268755501000e-009
Cuc:                       2.04890966415000e-008
Cus:                       1.09542161226000e-005
Crc:                       1.66468750000000e+002
Crs:                       8.75000000000000e-001
Cic:                       -9.49949026108000e-008
Cis:                       -1.06170773506000e-007
Clock ref. time (s):       345584
af0:                       1.25095248222000e-005
af1:                       5.68434188608000e-013
af2:                       0.00000000000000e+000
Group delay (s):           1.39698386192000e-009

